{"type": "FeatureCollection", "features": [ {"type": "Feature", "properties": {"norad_id": 33867, "name": "IRIDIUM 33 DEB", "group": "iridium-33-debris", "lat": -56.49362873063662, "lon": -16.471243130627226, "alt_km": 367.1132851379434, "timestamp": "2025-12-14T18:52:55.888426+00:00", "meta": {"OBJECT_NAME": "IRIDIUM 33 DEB", "OBJECT_ID": "1997-051AL", "EPOCH": "2025-12-13T23:15:09.154080", "MEAN_MOTION": 15.70457294, "ECCENTRICITY": 0.00131662, "INCLINATION": 86.365, "RA_OF_ASC_NODE": 349.4658, "ARG_OF_PERICENTER": 89.1774, "MEAN_ANOMALY": 271.1005, "EPHEMERIS_TYPE": 0, "CLASSIFICATION_TYPE": "U", "NORAD_CAT_ID": 33867, "ELEMENT_SET_NO": 999, "REV_AT_EPOCH": 89530, "BSTAR": 0.0079196879, "MEAN_MOTION_DOT": 0.01079904, "MEAN_MOTION_DDOT": 0}, "tle": {"line1": "1 33867U 97051AL  25347.96885595  .01079904  00000+0  79197-2 0  9999", "line2": "2 33867  86.3650 349.4658 0013166  89.1774 271.1005 15.70457294895304"}}, "geometry": {"type": "Point", "coordinates": [-16.471243130627226, -56.49362873063662]}}, {"type": "Feature", "properties": {"norad_id": 33870, "name": "IRIDIUM 33 DEB", "group": "iridium-33-debris", "lat": 5.484979868887724, "lon": -122.9654586555647, "alt_km": 726.1698399733541, "timestamp": "2025-12-14T18:52:55.888437+00:00", "meta": {"OBJECT_NAME": "IRIDIUM 33 DEB", "OBJECT_ID": "1997-051AP", "EPOCH": "2025-12-13T17:44:33.430848", "MEAN_MOTION": 14.45859763, "ECCENTRICITY": 0.00215693, "INCLINATION": 86.3748, "RA_OF_ASC_NODE": 57.8322, "ARG_OF_PERICENTER": 174.8815, "MEAN_ANOMALY": 310.7154, "EPHEMERIS_TYPE": 0, "CLASSIFICATION_TYPE": "U", "NORAD_CAT_ID": 33870, "ELEMENT_SET_NO": 999, "REV_AT_EPOCH": 88151, "BSTAR": 0.00098021698, "MEAN_MOTION_DOT": 3.509e-05, "MEAN_MOTION_DDOT": 0}, "tle": {"line1": "1 33870U 97051AP  25347.73927582  .00003509  00000+0  98022-3 0  9997", "line2": "2 33870  86.3748  57.8322 0021569 174.8815 310.7154 14.45859763881519"}}, "geometry": {"type": "Point", "coordinates": [-122.9654586555647, 5.484979868887724]}}, {"type": "Feature", "properties": {"norad_id": 33881, "name": "IRIDIUM 33 DEB", "group": "iridium-33-debris", "lat": 58.59080888927709, "lon": -80.08863883653135, "alt_km": 668.5635538204833, "timestamp": "2025-12-14T18:52:55.888447+00:00", "meta": {"OBJECT_NAME": "IRIDIUM 33 DEB", "OBJECT_ID": "1997-051BA", "EPOCH": "2025-12-13T19:48:25.638336", "MEAN_MOTION": 14.56605149, "ECCENTRICITY": 0.00614683, "INCLINATION": 86.3859, "RA_OF_ASC_NODE": 106.2704, "ARG_OF_PERICENTER": 171.1781, "MEAN_ANOMALY": 312.0247, "EPHEMERIS_TYPE": 0, "CLASSIFICATION_TYPE": "U", "NORAD_CAT_ID": 33881, "ELEMENT_SET_NO": 999, "REV_AT_EPOCH": 87516, "BSTAR": 0.0023630545, "MEAN_MOTION_DOT": 0.00010834, "MEAN_MOTION_DDOT": 0}, "tle": {"line1": "1 33881U 97051BA  25347.82529674  .00010834  00000+0  23631-2 0  9991", "line2": "2 33881  86.3859 106.2704 0061468 171.1781 312.0247 14.56605149875162"}}, "geometry": {"type": "Point", "coordinates": [-80.08863883653135, 58.59080888927709]}}, {"type": "Feature", "properties": {"norad_id": 33884, "name": "IRIDIUM 33 DEB", "group": "iridium-33-debris", "lat": -41.684021254595756, "lon": -167.86494691225417, "alt_km": 644.5193390822888, "timestamp": "2025-12-14T18:52:55.888458+00:00", "meta": {"OBJECT_NAME": "IRIDIUM 33 DEB", "OBJECT_ID": "1997-051BD", "EPOCH": "2025-12-14T00:18:06.589728", "MEAN_MOTION": 14.77464877, "ECCENTRICITY": 0.00095552, "INCLINATION": 86.3704, "RA_OF_ASC_NODE": 9.2441, "ARG_OF_PERICENTER": 319.0291, "MEAN_ANOMALY": 107.6771, "EPHEMERIS_TYPE": 0, "CLASSIFICATION_TYPE": "U", "NORAD_CAT_ID": 33884, "ELEMENT_SET_NO": 999, "REV_AT_EPOCH": 88866, "BSTAR": 0.0016029704, "MEAN_MOTION_DOT": 0.00011458, "MEAN_MOTION_DDOT": 0}, "tle": {"line1": "1 33884U 97051BD  25348.01257627  .00011458  00000+0  16030-2 0  9990", "line2": "2 33884  86.3704   9.2441 0009555 319.0291 107.6771 14.77464877888665"}}, "geometry": {"type": "Point", "coordinates": [-167.86494691225417, -41.684021254595756]}}, {"type": "Feature", "properties": {"norad_id": 33886, "name": "IRIDIUM 33 DEB", "group": "iridium-33-debris", "lat": -22.853264010089923, "lon": -112.10500752288107, "alt_km": 769.5610512174899, "timestamp": "2025-12-14T18:52:55.888469+00:00", "meta": {"OBJECT_NAME": "IRIDIUM 33 DEB", "OBJECT_ID": "1997-051BF", "EPOCH": "2025-12-13T17:22:55.790976", "MEAN_MOTION": 14.36053452, "ECCENTRICITY": 0.001237, "INCLINATION": 86.383, "RA_OF_ASC_NODE": 66.8145, "ARG_OF_PERICENTER": 238.3609, "MEAN_ANOMALY": 235.0646, "EPHEMERIS_TYPE": 0, "CLASSIFICATION_TYPE": "U", "NORAD_CAT_ID": 33886, "ELEMENT_SET_NO": 999, "REV_AT_EPOCH": 88066, "BSTAR": 0.00027440153, "MEAN_MOTION_DOT": 8.18e-06, "MEAN_MOTION_DDOT": 0}, "tle": {"line1": "1 33886U 97051BF  25347.72425684  .00000818  00000+0  27440-3 0  9995", "line2": "2 33886  86.3830  66.8145 0012370 238.3609 235.0646 14.36053452880669"}}, "geometry": {"type": "Point", "coordinates": [-112.10500752288107, -22.853264010089923]}}, {"type": "Feature", "properties": {"norad_id": 33887, "name": "IRIDIUM 33 DEB", "group": "iridium-33-debris", "lat": 32.1567882507214, "lon": -179.8182364726302, "alt_km": 764.8340290126571, "timestamp": "2025-12-14T18:52:55.888479+00:00", "meta": {"OBJECT_NAME": "IRIDIUM 33 DEB", "OBJECT_ID": "1997-051BG", "EPOCH": "2025-12-13T19:22:35.154048", "MEAN_MOTION": 14.37222095, "ECCENTRICITY": 0.00045305, "INCLINATION": 86.3045, "RA_OF_ASC_NODE": 2.9323, "ARG_OF_PERICENTER": 221.8987, "MEAN_ANOMALY": 261.5794, "EPHEMERIS_TYPE": 0, "CLASSIFICATION_TYPE": "U", "NORAD_CAT_ID": 33887, "ELEMENT_SET_NO": 999, "REV_AT_EPOCH": 88180, "BSTAR": 0.00019984385, "MEAN_MOTION_DOT": 6.14e-06, "MEAN_MOTION_DDOT": 0}, "tle": {"line1": "1 33887U 97051BG  25347.80735132  .00000614  00000+0  19984-3 0  9995", "line2": "2 33887  86.3045   2.9323 0004530 221.8987 261.5794 14.37222095881809"}}, "geometry": {"type": "Point", "coordinates": [-179.8182364726302, 32.1567882507214]}}, {"type": "Feature", "properties": {"norad_id": 33953, "name": "IRIDIUM 33 DEB", "group": "iridium-33-debris", "lat": 43.12199125835363, "lon": -130.50350763824454, "alt_km": 694.814613769282, "timestamp": "2025-12-14T18:52:55.888490+00:00", "meta": {"OBJECT_NAME": "IRIDIUM 33 DEB", "OBJECT_ID": "1997-051BN", "EPOCH": "2025-12-13T23:00:41.279904", "MEAN_MOTION": 14.55343363, "ECCENTRICITY": 0.00183355, "INCLINATION": 86.3847, "RA_OF_ASC_NODE": 53.2502, "ARG_OF_PERICENTER": 99.1861, "MEAN_ANOMALY": 22.3389, "EPHEMERIS_TYPE": 0, "CLASSIFICATION_TYPE": "U", "NORAD_CAT_ID": 33953, "ELEMENT_SET_NO": 999, "REV_AT_EPOCH": 88321, "BSTAR": 0.0013385984, "MEAN_MOTION_DOT": 5.839e-05, "MEAN_MOTION_DDOT": 0}, "tle": {"line1": "1 33953U 97051BN  25347.95881111  .00005839  00000+0  13386-2 0  9997", "line2": "2 33953  86.3847  53.2502 0018335  99.1861  22.3389 14.55343363883218"}}, "geometry": {"type": "Point", "coordinates": [-130.50350763824454, 43.12199125835363]}}, {"type": "Feature", "properties": {"norad_id": 33960, "name": "IRIDIUM 33 DEB", "group": "iridium-33-debris", "lat": 18.747453887031238, "lon": 107.27475048699873, "alt_km": 614.174951420754, "timestamp": "2025-12-14T18:52:55.888500+00:00", "meta": {"OBJECT_NAME": "IRIDIUM 33 DEB", "OBJECT_ID": "1997-051BV", "EPOCH": "2025-12-13T21:25:51.216960", "MEAN_MOTION": 14.85280498, "ECCENTRICITY": 0.00075038, "INCLINATION": 86.2527, "RA_OF_ASC_NODE": 288.9709, "ARG_OF_PERICENTER": 60.6709, "MEAN_ANOMALY": 4.2451, "EPHEMERIS_TYPE": 0, "CLASSIFICATION_TYPE": "U", "NORAD_CAT_ID": 33960, "ELEMENT_SET_NO": 999, "REV_AT_EPOCH": 88884, "BSTAR": 0.0032288241, "MEAN_MOTION_DOT": 0.00027836, "MEAN_MOTION_DDOT": 0}, "tle": {"line1": "1 33960U 97051BV  25347.89295390  .00027836  00000+0  32288-2 0  9999", "line2": "2 33960  86.2527 288.9709 0007503  60.6709   4.2451 14.85280498888840"}}, "geometry": {"type": "Point", "coordinates": [107.27475048699873, 18.747453887031238]}}, {"type": "Feature", "properties": {"norad_id": 33966, "name": "IRIDIUM 33 DEB", "group": "iridium-33-debris", "lat": -40.39794223936326, "lon": -131.77363488242057, "alt_km": 729.4040200403042, "timestamp": "2025-12-14T18:52:55.888511+00:00", "meta": {"OBJECT_NAME": "IRIDIUM 33 DEB", "OBJECT_ID": "1997-051CB", "EPOCH": "2025-12-13T15:55:10.824672", "MEAN_MOTION": 14.49599839, "ECCENTRICITY": 0.00075315, "INCLINATION": 86.3927, "RA_OF_ASC_NODE": 45.6309, "ARG_OF_PERICENTER": 185.0605, "MEAN_ANOMALY": 296.2992, "EPHEMERIS_TYPE": 0, "CLASSIFICATION_TYPE": "U", "NORAD_CAT_ID": 33966, "ELEMENT_SET_NO": 999, "REV_AT_EPOCH": 88455, "BSTAR": 0.00068967677, "MEAN_MOTION_DOT": 2.668e-05, "MEAN_MOTION_DDOT": 0}, "tle": {"line1": "1 33966U 97051CB  25347.66331973  .00002668  00000+0  68968-3 0  9999", "line2": "2 33966  86.3927  45.6309 0007531 185.0605 296.2992 14.49599839884552"}}, "geometry": {"type": "Point", "coordinates": [-131.77363488242057, -40.39794223936326]}}, {"type": "Feature", "properties": {"norad_id": 34071, "name": "IRIDIUM 33 DEB", "group": "iridium-33-debris", "lat": -73.85714071554781, "lon": 4.184771790507535, "alt_km": 741.8146019254991, "timestamp": "2025-12-14T18:52:55.888521+00:00", "meta": {"OBJECT_NAME": "IRIDIUM 33 DEB", "OBJECT_ID": "1997-051CE", "EPOCH": "2025-12-13T20:01:44.992992", "MEAN_MOTION": 14.49471557, "ECCENTRICITY": 0.00099486, "INCLINATION": 86.3461, "RA_OF_ASC_NODE": 17.3527, "ARG_OF_PERICENTER": 104.6546, "MEAN_ANOMALY": 255.5762, "EPHEMERIS_TYPE": 0, "CLASSIFICATION_TYPE": "U", "NORAD_CAT_ID": 34071, "ELEMENT_SET_NO": 999, "REV_AT_EPOCH": 88350, "BSTAR": 0.00072232186, "MEAN_MOTION_DOT": 2.786e-05, "MEAN_MOTION_DDOT": 0}, "tle": {"line1": "1 34071U 97051CE  25347.83454853  .00002786  00000+0  72232-3 0  9999", "line2": "2 34071  86.3461  17.3527 0009948 104.6546 255.5762 14.49471557883509"}}, "geometry": {"type": "Point", "coordinates": [4.184771790507535, -73.85714071554781]}}]}